[{"OBJECT_NAME":"STARLINK-34350","OBJECT_ID":"2025-120W","EPOCH":"2026-03-09T12:39:42.613056","MEAN_MOTION":15.30198014,"ECCENTRICITY":0.00012167,"INCLINATION":53.159,"RA_OF_ASC_NODE":117.2785,"ARG_OF_PERICENTER":86.78,"MEAN_ANOMALY":273.334,"EPHEMERIS_TYPE":0,"CLASSIFICATION_TYPE":"U","NORAD_CAT_ID":64276,"ELEMENT_SET_NO":999,"REV_AT_EPOCH":4389,"BSTAR":0.00086916011,"MEAN_MOTION_DOT":0.0002547,"MEAN_MOTION_DDOT":0},{"OBJECT_NAME":"239ALFEROV (RS61S)","OBJECT_ID":"2025-155F","EPOCH":"2026-03-09T21:46:33.382848","MEAN_MOTION":15.29933217,"ECCENTRICITY":0.00084878,"INCLINATION":97.4469,"RA_OF_ASC_NODE":37.6373,"ARG_OF_PERICENTER":151.5904,"MEAN_ANOMALY":208.58,"EPHEMERIS_TYPE":0,"CLASSIFICATION_TYPE":"U","NORAD_CAT_ID":64881,"ELEMENT_SET_NO":999,"REV_AT_EPOCH":6561,"BSTAR":0.00067233359,"MEAN_MOTION_DOT":0.00019457,"MEAN_MOTION_DDOT":0}]
